HST                     
1 20580U 90037B   26166.12212988  .00005845  00000+0  18362-3 0  9992
2 20580  28.4718  94.6872 0001877 120.6716 239.4066 15.30726834788258
POLAR                   
1 23802U 96013A   26166.49652468  .00000145  00000+0  00000+0 0  9997
2 23802  79.8518 227.0721 6468777 209.1373  89.7305  1.29846141144834
SWAS                    
1 25560U 98071A   26166.55796412  .00002760  00000+0  17766-3 0  9997
2 25560  69.8953 231.7209 0008691 261.5465  98.4714 15.09618642497024
CXO                     
1 25867U 99040B   26169.37713324  .00000529  00000+0  00000+0 0  9998
2 25867  56.2189 116.5542 7835469 310.3049   0.1821  0.37804062 17322
XMM-NEWTON              
1 25989U 99066A   26167.35230823  .00000036  00000+0  00000+0 0  9998
2 25989  64.4922 282.9960 4674559  64.9442   0.1261  0.50126459 23004
TERRA                   
1 25994U 99068A   26166.59087417  .00000320  00000+0  74204-4 0  9998
2 25994  97.9457 216.2004 0001454 195.2632 286.2211 14.61101935409375
CLUSTER II-FM7 (SAMBA)  
1 26410U 00041A   26168.13893488  .00013373  00000+0  00000+0 0  9990
2 26410 149.9159  50.9864 9054007 268.1291 359.6411  0.44868040 20307
CLUSTER II-FM8 (TANGO)  
1 26464U 00045B   26166.18659910  .00011716  00000+0  00000+0 0  9995
2 26464 150.1453  51.6789 9056527 268.6418   2.8164  0.44420492 20303
ODIN                    
1 26702U 01007A   26166.57013451  .00157777  00000+0  10328-2 0  9991
2 26702  97.3829 207.4088 0006786 144.9163 215.2550 15.75308074389146
TIMED                   
1 26998U 01055B   26166.60316970  .00000950  00000+0  89818-4 0  9999
2 26998  74.0675 238.2078 0001032 338.3114  21.8027 14.95292066330587
CORIOLIS                
1 27640U 03001A   26166.57648454  .00000078  00000+0  57064-4 0  9997
2 27640  98.7125 173.4858 0013279 213.6872 146.3461 14.19944412213998
SORCE                   
1 27651U 03004A   26166.01430323  .00002604  00000+0  19706-3 0  9992
2 27651  39.9911 274.0755 0016736  32.6972 327.4855 15.03703956271572
MOST                    
1 27843U 03031D   26166.52176318  .00000046  00000+0  41362-4 0  9994
2 27843  98.7045 174.2710 0008708 255.8574 104.1636 14.21322169190473
SCISAT 1                
1 27858U 03036A   26166.46986430  .00000406  00000+0  56554-4 0  9991
2 27858  73.9285 174.7550 0008589 244.4926 115.5362 14.81446007231190
SWIFT                   
1 28485U 04047A   26166.40597521  .00042527  00000+0  35480-3 0  9998
2 28485  20.5516 198.6409 0001619 255.9834 104.0432 15.68175033186589
HINODE (SOLAR-B)        
1 29479U 06041A   26166.55020658  .00000578  00000+0  10771-3 0  9992
2 29479  98.0549 182.7269 0016057 295.4065  64.5478 14.68621093 54635
SHIJIAN-6 02A (SJ-6 02A)
1 29505U 06046A   26166.64037543  .00007006  00000+0  35858-3 0  9994
2 29505  97.6362 207.6948 0004323 128.0636 232.0987 15.16931843 72034
SHIJIAN-6 02B (SJ-6 02B)
1 29506U 06046B   26166.61351071  .00001491  00000+0  12017-3 0  9991
2 29506  97.7158 195.6818 0015297  64.8536 295.4273 15.01374971 70507
FGRST (GLAST)           
1 33053U 08029A   26166.52614443  .00002531  00000+0  88168-4 0  9998
2 33053  25.5806 216.0172 0007642 308.9308  51.0549 15.23940963995583
SDO                     
1 36395U 10005A   26165.43714222 -.00000094  00000+0  00000+0 0  9999
2 36395  34.6460  86.3840 0001714  49.5303 182.1298  1.00269990 60033
CRYOSAT 2               
1 36508U 10013A   26166.56526367  .00000179  00000+0  43759-4 0  9996
2 36508  92.0354 276.9073 0002162  88.9541 271.1914 14.51898603857849
X-SAT                   
1 37389U 11015C   26166.61080292  .00000156  00000+0  83845-4 0  9990
2 37389  98.3502 143.7091 0014050 353.2157   6.8831 14.25206049787450
GCOM-W1 (SHIZUKU)       
1 38337U 12025A   26166.46388222  .00000379  00000+0  94033-4 0  9991
2 38337  98.2021 107.0456 0001812  76.4042  39.7184 14.57123136748785
NUSTAR                  
1 38358U 12031A   26166.66667824  .00008084  00000+0  44580-3 0  9993
2 38358   6.0273  45.5408 0006780  83.0304   3.9239 15.08790827  1309
NEOSSAT                 
1 39089U 13009D   26166.46735171  .00000118  00000+0  55441-4 0  9999
2 39089  98.4176 346.5409 0009853 249.5350 110.4779 14.35825849696492
BRITE-AUSTRIA           
1 39091U 13009F   26166.46683412  .00000139  00000+0  61898-4 0  9998
2 39091  98.3993 345.9451 0009085 242.3065 117.7200 14.36541469696800
IRIS                    
1 39197U 13033A   26166.54869672  .00000874  00000+0  10627-3 0  9994
2 39197  97.9330   5.8309 0023669 327.3812  32.5940 14.85882483700134
HISAKI (SPRINT-A)       
1 39253U 13049A   26166.50847527  .00000131  00000+0  92305-4 0  9995
2 39253  29.7185 228.5480 0136855   3.2464 356.8974 13.55544623631192
CASSIOPE                
1 39265U 13055A   26166.52185013  .00044286 -51751-6  48446-3 0  9994
2 39265  80.9156  68.7444 0293224  68.0280 295.1834 15.25047037667415
STSAT-3                 
1 39422U 13066G   26166.64788676  .00002628  00000+0  20092-3 0  9992
2 39422  97.6216 136.5609 0011151  49.3080 310.9112 15.02748704683974
SWARM B                 
1 39451U 13067A   26166.56263291  .00003120  00000+0  11115-3 0  9991
2 39451  87.7434 342.8104 0003323  86.4240 273.7389 15.28543044682993
